[{"OBJECT_NAME":"ONEWEB-0504","OBJECT_ID":"2022-138K","EPOCH":"2026-03-09T17:34:43.675680","MEAN_MOTION":13.19725454,"ECCENTRICITY":0.00015499,"INCLINATION":87.923,"RA_OF_ASC_NODE":324.7789,"ARG_OF_PERICENTER":87.5252,"MEAN_ANOMALY":272.6058,"EPHEMERIS_TYPE":0,"CLASSIFICATION_TYPE":"U","NORAD_CAT_ID":54122,"ELEMENT_SET_NO":999,"REV_AT_EPOCH":16371,"BSTAR":-0.00016984146,"MEAN_MOTION_DOT":-5.5e-7,"MEAN_MOTION_DDOT":0},{"OBJECT_NAME":"FENGYUN 1C DEB","OBJECT_ID":"1999-025EUM","EPOCH":"2026-03-08T12:30:14.445792","MEAN_MOTION":13.61727451,"ECCENTRICITY":0.02467864,"INCLINATION":99.4778,"RA_OF_ASC_NODE":322.9968,"ARG_OF_PERICENTER":2.4273,"MEAN_ANOMALY":357.8006,"EPHEMERIS_TYPE":0,"CLASSIFICATION_TYPE":"U","NORAD_CAT_ID":38797,"ELEMENT_SET_NO":999,"REV_AT_EPOCH":60450,"BSTAR":0.00097284184,"MEAN_MOTION_DOT":8.71e-6,"MEAN_MOTION_DDOT":0}]
